ONEWEB-0588             
1 55153U 23004P   25091.43025444  .00000099  00000+0  21800-3 0  9992
2 55153  87.9089  63.3228 0001555  95.3218 264.8092 13.18687874111478
ONEWEB-0598             
1 55154U 23004Q   25091.78344741  .00000052  00000+0  11176-3 0  9999
2 55154  87.8797 109.0803 0001406  77.0854 283.0431 13.11418817108051
ONEWEB-0599             
1 55155U 23004R   25091.53200237  .00000037  00000+0  61525-4 0  9991
2 55155  87.9008  93.8327 0001881  82.3771 277.7574 13.17651476109328
ONEWEB-0614             
1 55156U 23004S   25091.54947101 -.00000168  00000+0 -50918-3 0  9991
2 55156  87.8800 109.1348 0002059 102.6331 257.5027 13.11419179107950
ONEWEB-0616             
1 55157U 23004T   25091.49826420  .00000019  00000+0  15597-4 0  9994
2 55157  87.9004  93.8343 0002780  70.5536 289.5896 13.17651277109531
ONEWEB-0617             
1 55158U 23004U   25091.76648792 -.00000517  00000+0 -14959-2 0  9993
2 55158  87.8793 109.0753 0001775 103.4767 256.6559 13.11416494108013
ONEWEB-0618             
1 55159U 23004V   25091.54933388 -.00000310  00000+0 -11081-3 0  9993
2 55159  86.9129 350.7354 0015578  71.3618 288.9270 14.37104113116527
ONEWEB-0619             
1 55160U 23004W   25091.53034187  .00000004  00000+0 -22331-4 0  9993
2 55160  87.9003  93.8054 0002443  96.1856 263.9554 13.17650380109438
